{
  "constellation": "oneweb",
  "timestamp": "2025-07-21T05:06:13.717346+00:00",
  "satellite_count": 651,
  "data": [
    {
      "satellite_name": "ONEWEB-0501",
      "catalog_number": 54119,
      "epoch_year": 2025,
      "epoch_day": 201.84679289,
      "first_derivative": -2.3e-07,
      "second_derivative": 0.0,
      "drag_term": -8.8782e-05,
      "inclination": 87.9221,
      "right_ascension": 10.8173,
      "eccentricity": 0.000229,
      "argument_of_perigee": 92.151,
      "mean_anomaly": 267.9885,
      "mean_motion": 13.19724318,
      "revolution_number": 13397,
      "line1": "1 54119U 22138G   25201.84679289 -.00000023  00000+0 -88782-4 0  9992",
      "line2": "2 54119  87.9221  10.8173 0002290  92.1510 267.9885 13.19724318133979",
      "last_updated": "2025-07-21T05:06:13.714682+00:00",
      "constellation": "oneweb"
    },
    {
      "satellite_name": "ONEWEB-0502",
      "catalog_number": 54120,
      "epoch_year": 2025,
      "epoch_day": 201.83257588,
      "first_derivative": -5.9e-07,
      "second_derivative": 0.0,
      "drag_term": -0.00017916,
      "inclination": 87.922,
      "right_ascension": 10.8039,
      "eccentricity": 0.000213,
      "argument_of_perigee": 95.3521,
      "mean_anomaly": 264.7854,
      "mean_motion": 13.19723963,
      "revolution_number": 13399,
      "line1": "1 54120U 22138H   25201.83257588 -.00000059  00000+0 -17916-3 0  9996",
      "line2": "2 54120  87.9220  10.8039 0002130  95.3521 264.7854 13.19723963133999",
      "last_updated": "2025-07-21T05:06:13.714684+00:00",
      "constellation": "oneweb"
    },
    {
      "satellite_name": "ONEWEB-0503",
      "catalog_number": 54121,
      "epoch_year": 2025,
      "epoch_day": 201.51824843,
      "first_derivative": 2.3e-07,
      "second_derivative": 0.0,
      "drag_term": 0.0,
      "inclination": 87.9219,
      "right_ascension": 10.8711,
      "eccentricity": 0.0001826,
      "argument_of_perigee": 101.9426,
      "mean_anomaly": 258.1912,
      "mean_motion": 13.19725248,
      "revolution_number": 13307,
      "line1": "1 54121U 22138J   25201.51824843  .00000023  00000+0  24889-4 0  9993",
      "line2": "2 54121  87.9219  10.8711 0001826 101.9426 258.1912 13.19725248133073",
      "last_updated": "2025-07-21T05:06:13.714686+00:00",
      "constellation": "oneweb"
    },
    {
      "satellite_name": "ONEWEB-0504",
      "catalog_number": 54122,
      "epoch_year": 2025,
      "epoch_day": 201.73306557,
      "first_derivative": 1.38e-06,
      "second_derivative": 0.0,
      "drag_term": 0.0,
      "inclination": 87.9222,
      "right_ascension": 10.8437,
      "eccentricity": 0.0002137,
      "argument_of_perigee": 96.6185,
      "mean_anomaly": 263.5191,
      "mean_motion": 13.19725313,
      "revolution_number": 13398,
      "line1": "1 54122U 22138K   25201.73306557  .00000138  00000+0  31237-3 0  9996",
      "line2": "2 54122  87.9222  10.8437 0002137  96.6185 263.5191 13.19725313133983",
      "last_updated": "2025-07-21T05:06:13.714688+00:00",
      "constellation": "oneweb"
    },
    {
      "satellite_name": "ONEWEB-0505",
      "catalog_number": 54123,
      "epoch_year": 2025,
      "epoch_day": 201.50242302,
      "first_derivative": -4.88e-06,
      "second_derivative": 0.0,
      "drag_term": -0.0012504000000000003,
      "inclination": 87.9217,
      "right_ascension": 10.8789,
      "eccentricity": 0.0002358,
      "argument_of_perigee": 93.9256,
      "mean_anomaly": 266.2146,
      "mean_motion": 13.19726533,
      "revolution_number": 13306,
      "line1": "1 54123U 22138L   25201.50242302 -.00000488  00000+0 -12504-2 0  9994",
      "line2": "2 54123  87.9217  10.8789 0002358  93.9256 266.2146 13.19726533133066",
      "last_updated": "2025-07-21T05:06:13.714690+00:00",
      "constellation": "oneweb"
    },
    {
      "satellite_name": "ONEWEB-0506",
      "catalog_number": 54124,
      "epoch_year": 2025,
      "epoch_day": 201.47718475,
      "first_derivative": 8.1e-07,
      "second_derivative": 0.0,
      "drag_term": 0.0,
      "inclination": 87.9221,
      "right_ascension": 10.8811,
      "eccentricity": 0.000203,
      "argument_of_perigee": 93.0428,
      "mean_anomaly": 267.0937,
      "mean_motion": 13.19725406,
      "revolution_number": 13305,
      "line1": "1 54124U 22138M   25201.47718475  .00000081  00000+0  17059-3 0  9998",
      "line2": "2 54124  87.9221  10.8811 0002030  93.0428 267.0937 13.19725406133051",
      "last_updated": "2025-07-21T05:06:13.714692+00:00",
      "constellation": "oneweb"
    },
    {
      "satellite_name": "ONEWEB-0507",
      "catalog_number": 54125,
      "epoch_year": 2025,
      "epoch_day": 201.8767952,
      "first_derivative": 8.7e-07,
      "second_derivative": 0.0,
      "drag_term": 0.0,
      "inclination": 87.9219,
      "right_ascension": 10.8553,
      "eccentricity": 0.0002055,
      "argument_of_perigee": 90.4867,
      "mean_anomaly": 269.6502,
      "mean_motion": 13.19727599,
      "revolution_number": 13402,
      "line1": "1 54125U 22138N   25201.87679520  .00000087  00000+0  18571-3 0  9996",
      "line2": "2 54125  87.9219  10.8553 0002055  90.4867 269.6502 13.19727599134026",
      "last_updated": "2025-07-21T05:06:13.714694+00:00",
      "constellation": "oneweb"
    },
    {
      "satellite_name": "ONEWEB-0508",
      "catalog_number": 54126,
      "epoch_year": 2025,
      "epoch_day": 201.49455937,
      "first_derivative": 1.34e-06,
      "second_derivative": 0.0,
      "drag_term": 0.0,
      "inclination": 87.9223,
      "right_ascension": 10.9142,
      "eccentricity": 0.0002256,
      "argument_of_perigee": 88.6758,
      "mean_anomaly": 271.4633,
      "mean_motion": 13.19725333,
      "revolution_number": 13308,
      "line1": "1 54126U 22138P   25201.49455937  .00000134  00000+0  30170-3 0  9991",
      "line2": "2 54126  87.9223  10.9142 0002256  88.6758 271.4633 13.19725333133083",
      "last_updated": "2025-07-21T05:06:13.714696+00:00",
      "constellation": "oneweb"
    },
    {
      "satellite_name": "ONEWEB-0509",
      "catalog_number": 54127,
      "epoch_year": 2025,
      "epoch_day": 201.46928248,
      "first_derivative": 7.5e-07,
      "second_derivative": 0.0,
      "drag_term": 0.0,
      "inclination": 87.9219,
      "right_ascension": 10.8798,
      "eccentricity": 0.0002002,
      "argument_of_perigee": 93.0413,
      "mean_anomaly": 267.0948,
      "mean_motion": 13.1972547,
      "revolution_number": 13305,
      "line1": "1 54127U 22138Q   25201.46928248  .00000075  00000+0  15553-3 0  9991",
      "line2": "2 54127  87.9219  10.8798 0002002  93.0413 267.0948 13.19725470133051",
      "last_updated": "2025-07-21T05:06:13.714698+00:00",
      "constellation": "oneweb"
    },
    {
      "satellite_name": "ONEWEB-0510",
      "catalog_number": 54128,
      "epoch_year": 2025,
      "epoch_day": 201.84705035,
      "first_derivative": 5.3e-07,
      "second_derivative": 0.0,
      "drag_term": 0.0,
      "inclination": 87.9289,
      "right_ascension": 340.4446,
      "eccentricity": 0.0001289,
      "argument_of_perigee": 102.4024,
      "mean_anomaly": 257.7254,
      "mean_motion": 13.2077242,
      "revolution_number": 13644,
      "line1": "1 54128U 22138R   25201.84705035  .00000053  00000+0  98917-4 0  9993",
      "line2": "2 54128  87.9289 340.4446 0001289 102.4024 257.7254 13.20772420136441",
      "last_updated": "2025-07-21T05:06:13.714701+00:00",
      "constellation": "oneweb"
    },
    {
      "satellite_name": "ONEWEB-0511",
      "catalog_number": 54129,
      "epoch_year": 2025,
      "epoch_day": 201.46612729,
      "first_derivative": 1.7e-07,
      "second_derivative": 0.0,
      "drag_term": 0.0,
      "inclination": 87.9219,
      "right_ascension": 10.8864,
      "eccentricity": 0.0001879,
      "argument_of_perigee": 101.4788,
      "mean_anomaly": 258.6556,
      "mean_motion": 13.19725547,
      "revolution_number": 13308,
      "line1": "1 54129U 22138S   25201.46612729  .00000017  00000+0  10269-4 0  9993",
      "line2": "2 54129  87.9219  10.8864 0001879 101.4788 258.6556 13.19725547133086",
      "last_updated": "2025-07-21T05:06:13.714703+00:00",
      "constellation": "oneweb"
    },
    {
      "satellite_name": "ONEWEB-0512",
      "catalog_number": 54130,
      "epoch_year": 2025,
      "epoch_day": 201.83731164,
      "first_derivative": 6.9e-07,
      "second_derivative": 0.0,
      "drag_term": 0.0,
      "inclination": 87.9214,
      "right_ascension": 10.8576,
      "eccentricity": 0.00023,
      "argument_of_perigee": 95.6258,
      "mean_anomaly": 264.5137,
      "mean_motion": 13.19725687,
      "revolution_number": 13397,
      "line1": "1 54130U 22138T   25201.83731164  .00000069  00000+0  13904-3 0  9996",
      "line2": "2 54130  87.9214  10.8576 0002300  95.6258 264.5137 13.19725687133973",
      "last_updated": "2025-07-21T05:06:13.714705+00:00",
      "constellation": "oneweb"
    },
    {
      "satellite_name": "ONEWEB-0513",
      "catalog_number": 54131,
      "epoch_year": 2025,
      "epoch_day": 201.52793051,
      "first_derivative": 5e-08,
      "second_derivative": 0.0,
      "drag_term": -1.9232e-05,
      "inclination": 87.9225,
      "right_ascension": 10.8815,
      "eccentricity": 0.0002308,
      "argument_of_perigee": 97.8912,
      "mean_anomaly": 262.2483,
      "mean_motion": 13.20264598,
      "revolution_number": 13295,
      "line1": "1 54131U 22138U   25201.52793051  .00000005  00000+0 -19232-4 0  9998",
      "line2": "2 54131  87.9225  10.8815 0002308  97.8912 262.2483 13.20264598132958",
      "last_updated": "2025-07-21T05:06:13.714707+00:00",
      "constellation": "oneweb"
    }
  ]
}